{"type": "FeatureCollection", "features": [ {"type": "Feature", "properties": {"norad_id": 33153, "name": "INTELSAT 25 (IS-25)", "group": "intelsat", "lat": -2.135097459680157, "lon": 11.854576492653159, "alt_km": 35789.686725127416, "timestamp": "2025-12-26T20:30:45.600884+00:00", "meta": {"OBJECT_NAME": "INTELSAT 25 (IS-25)", "OBJECT_ID": "2008-034A", "EPOCH": "2025-12-26T11:10:18.842304", "MEAN_MOTION": 1.00271391, "ECCENTRICITY": 0.00049958, "INCLINATION": 2.2611, "RA_OF_ASC_NODE": 82.4991, "ARG_OF_PERICENTER": 190.6323, "MEAN_ANOMALY": 318.163, "EPHEMERIS_TYPE": 0, "CLASSIFICATION_TYPE": "U", "NORAD_CAT_ID": 33153, "ELEMENT_SET_NO": 999, "REV_AT_EPOCH": 6396, "BSTAR": 0, "MEAN_MOTION_DOT": -2.03e-06, "MEAN_MOTION_DDOT": 0}, "tle": {"line1": "1 33153U 08034A   25360.46549586 -.00000203  00000+0  00000+0 0  9997", "line2": "2 33153   2.2611  82.4991 0004995 190.6323 318.1630  1.00271391 63963"}}, "geometry": {"type": "Point", "coordinates": [11.854576492653159, -2.135097459680157]}}, {"type": "Feature", "properties": {"norad_id": 33376, "name": "GALAXY 19 (G-19)", "group": "intelsat", "lat": 0.004692887773478856, "lon": -53.712317569632475, "alt_km": 35775.2151884994, "timestamp": "2025-12-26T20:30:45.600894+00:00", "meta": {"OBJECT_NAME": "GALAXY 19 (G-19)", "OBJECT_ID": "2008-045A", "EPOCH": "2025-12-26T11:24:38.058336", "MEAN_MOTION": 1.00271648, "ECCENTRICITY": 0.00028136, "INCLINATION": 0.0383, "RA_OF_ASC_NODE": 264.7732, "ARG_OF_PERICENTER": 18.0555, "MEAN_ANOMALY": 246.5483, "EPHEMERIS_TYPE": 0, "CLASSIFICATION_TYPE": "U", "NORAD_CAT_ID": 33376, "ELEMENT_SET_NO": 999, "REV_AT_EPOCH": 6317, "BSTAR": 0, "MEAN_MOTION_DOT": -1.17e-06, "MEAN_MOTION_DDOT": 0}, "tle": {"line1": "1 33376U 08045A   25360.47544049 -.00000117  00000+0  00000+0 0  9990", "line2": "2 33376   0.0383 264.7732 0002813  18.0555 246.5483  1.00271648 63175"}}, "geometry": {"type": "Point", "coordinates": [-53.712317569632475, 0.004692887773478856]}}, {"type": "Feature", "properties": {"norad_id": 35493, "name": "FM-5", "group": "intelsat", "lat": -0.006295251163572823, "lon": -42.880166194655594, "alt_km": 35789.81934064066, "timestamp": "2025-12-26T20:30:45.600905+00:00", "meta": {"OBJECT_NAME": "FM-5", "OBJECT_ID": "2009-034A", "EPOCH": "2025-12-25T21:13:02.840160", "MEAN_MOTION": 1.00269478, "ECCENTRICITY": 7.9e-05, "INCLINATION": 0.0148, "RA_OF_ASC_NODE": 303.8545, "ARG_OF_PERICENTER": 217.7513, "MEAN_ANOMALY": 165.1409, "EPHEMERIS_TYPE": 0, "CLASSIFICATION_TYPE": "U", "NORAD_CAT_ID": 35493, "ELEMENT_SET_NO": 999, "REV_AT_EPOCH": 4490, "BSTAR": 0, "MEAN_MOTION_DOT": -1.78e-06, "MEAN_MOTION_DDOT": 0}, "tle": {"line1": "1 35493U 09034A   25359.88406065 -.00000178  00000+0  00000+0 0  9996", "line2": "2 35493   0.0148 303.8545 0000790 217.7513 165.1409  1.00269478 44909"}}, "geometry": {"type": "Point", "coordinates": [-42.880166194655594, -0.006295251163572823]}}, {"type": "Feature", "properties": {"norad_id": 36097, "name": "INTELSAT 14 (IS-14)", "group": "intelsat", "lat": -0.014695556222369233, "lon": -1.693673115245961, "alt_km": 35783.41827236172, "timestamp": "2025-12-26T20:30:45.600916+00:00", "meta": {"OBJECT_NAME": "INTELSAT 14 (IS-14)", "OBJECT_ID": "2009-064A", "EPOCH": "2025-12-26T11:06:19.224000", "MEAN_MOTION": 1.00271706, "ECCENTRICITY": 0.00026446, "INCLINATION": 0.0128, "RA_OF_ASC_NODE": 39.804, "ARG_OF_PERICENTER": 242.6643, "MEAN_ANOMALY": 294.3197, "EPHEMERIS_TYPE": 0, "CLASSIFICATION_TYPE": "U", "NORAD_CAT_ID": 36097, "ELEMENT_SET_NO": 999, "REV_AT_EPOCH": 5887, "BSTAR": 0, "MEAN_MOTION_DOT": -2.51e-06, "MEAN_MOTION_DDOT": 0}, "tle": {"line1": "1 36097U 09064A   25360.46272250 -.00000251  00000+0  00000+0 0  9995", "line2": "2 36097   0.0128  39.8040 0002644 242.6643 294.3197  1.00271706 58872"}}, "geometry": {"type": "Point", "coordinates": [-1.693673115245961, -0.014695556222369233]}}, {"type": "Feature", "properties": {"norad_id": 36106, "name": "INTELSAT 15 (IS-15)", "group": "intelsat", "lat": 0.030712999371888736, "lon": 128.41500937621365, "alt_km": 35796.15994899785, "timestamp": "2025-12-26T20:30:45.600926+00:00", "meta": {"OBJECT_NAME": "INTELSAT 15 (IS-15)", "OBJECT_ID": "2009-067A", "EPOCH": "2025-12-26T03:37:38.694720", "MEAN_MOTION": 1.00270174, "ECCENTRICITY": 0.00024301, "INCLINATION": 0.0154, "RA_OF_ASC_NODE": 51.9638, "ARG_OF_PERICENTER": 235.3713, "MEAN_ANOMALY": 307.1291, "EPHEMERIS_TYPE": 0, "CLASSIFICATION_TYPE": "U", "NORAD_CAT_ID": 36106, "ELEMENT_SET_NO": 999, "REV_AT_EPOCH": 3949, "BSTAR": 0, "MEAN_MOTION_DOT": -1.63e-06, "MEAN_MOTION_DDOT": 0}, "tle": {"line1": "1 36106U 09067A   25360.15114230 -.00000163  00000+0  00000+0 0  9990", "line2": "2 36106   0.0154  51.9638 0002430 235.3713 307.1291  1.00270174 39493"}}, "geometry": {"type": "Point", "coordinates": [128.41500937621365, 0.030712999371888736]}}, {"type": "Feature", "properties": {"norad_id": 36131, "name": "DIRECTV 12", "group": "intelsat", "lat": -0.009797305457516661, "lon": -59.427685635667046, "alt_km": 35783.45721427681, "timestamp": "2025-12-26T20:30:45.600937+00:00", "meta": {"OBJECT_NAME": "DIRECTV 12", "OBJECT_ID": "2009-075A", "EPOCH": "2025-12-25T14:17:27.635136", "MEAN_MOTION": 1.00273448, "ECCENTRICITY": 5.26e-05, "INCLINATION": 0.0362, "RA_OF_ASC_NODE": 165.2057, "ARG_OF_PERICENTER": 147.3669, "MEAN_ANOMALY": 253.4343, "EPHEMERIS_TYPE": 0, "CLASSIFICATION_TYPE": "U", "NORAD_CAT_ID": 36131, "ELEMENT_SET_NO": 999, "REV_AT_EPOCH": 4481, "BSTAR": 0, "MEAN_MOTION_DOT": -8.2e-07, "MEAN_MOTION_DDOT": 0}, "tle": {"line1": "1 36131U 09075A   25359.59545874 -.00000082  00000+0  00000+0 0  9995", "line2": "2 36131   0.0362 165.2057 0000526 147.3669 253.4343  1.00273448 44812"}}, "geometry": {"type": "Point", "coordinates": [-59.427685635667046, -0.009797305457516661]}}, {"type": "Feature", "properties": {"norad_id": 36397, "name": "INTELSAT 16 (IS-16)", "group": "intelsat", "lat": -0.01909029661884166, "lon": -32.88714449610952, "alt_km": 35781.126247756074, "timestamp": "2025-12-26T20:30:45.600947+00:00", "meta": {"OBJECT_NAME": "INTELSAT 16 (IS-16)", "OBJECT_ID": "2010-006A", "EPOCH": "2025-12-26T12:40:10.236864", "MEAN_MOTION": 1.00271686, "ECCENTRICITY": 0.00020264, "INCLINATION": 0.0098, "RA_OF_ASC_NODE": 8.0351, "ARG_OF_PERICENTER": 264.8493, "MEAN_ANOMALY": 296.2475, "EPHEMERIS_TYPE": 0, "CLASSIFICATION_TYPE": "U", "NORAD_CAT_ID": 36397, "ELEMENT_SET_NO": 999, "REV_AT_EPOCH": 5792, "BSTAR": 0, "MEAN_MOTION_DOT": -2.23e-06, "MEAN_MOTION_DDOT": 0}, "tle": {"line1": "1 36397U 10006A   25360.52789626 -.00000223  00000+0  00000+0 0  9992", "line2": "2 36397   0.0098   8.0351 0002026 264.8493 296.2475  1.00271686 57929"}}, "geometry": {"type": "Point", "coordinates": [-32.88714449610952, -0.01909029661884166]}}, {"type": "Feature", "properties": {"norad_id": 37185, "name": "XM-5", "group": "intelsat", "lat": 0.00035439052516742685, "lon": -71.90019047494916, "alt_km": 35792.02262513648, "timestamp": "2025-12-26T20:30:45.600958+00:00", "meta": {"OBJECT_NAME": "XM-5", "OBJECT_ID": "2010-053A", "EPOCH": "2025-12-26T06:45:38.542176", "MEAN_MOTION": 1.00272159, "ECCENTRICITY": 0.00020386, "INCLINATION": 0.0641, "RA_OF_ASC_NODE": 269.394, "ARG_OF_PERICENTER": 243.8981, "MEAN_ANOMALY": 287.9534, "EPHEMERIS_TYPE": 0, "CLASSIFICATION_TYPE": "U", "NORAD_CAT_ID": 37185, "ELEMENT_SET_NO": 999, "REV_AT_EPOCH": 5575, "BSTAR": 0, "MEAN_MOTION_DOT": -1e-08, "MEAN_MOTION_DDOT": 0}, "tle": {"line1": "1 37185U 10053A   25360.28169609 -.00000001  00000+0  00000+0 0  9990", "line2": "2 37185   0.0641 269.3940 0002038 243.8981 287.9534  1.00272159 55755"}}, "geometry": {"type": "Point", "coordinates": [-71.90019047494916, 0.00035439052516742685]}}, {"type": "Feature", "properties": {"norad_id": 37238, "name": "INTELSAT 17 (IS-17)", "group": "intelsat", "lat": 0.031168222611952515, "lon": 109.25641849941141, "alt_km": 35798.217657035304, "timestamp": "2025-12-26T20:30:45.600969+00:00", "meta": {"OBJECT_NAME": "INTELSAT 17 (IS-17)", "OBJECT_ID": "2010-065B", "EPOCH": "2025-12-26T15:53:27.454848", "MEAN_MOTION": 1.00272011, "ECCENTRICITY": 0.00029351, "INCLINATION": 0.0297, "RA_OF_ASC_NODE": 74.8027, "ARG_OF_PERICENTER": 224.8642, "MEAN_ANOMALY": 100.0752, "EPHEMERIS_TYPE": 0, "CLASSIFICATION_TYPE": "U", "NORAD_CAT_ID": 37238, "ELEMENT_SET_NO": 999, "REV_AT_EPOCH": 5151, "BSTAR": 0, "MEAN_MOTION_DOT": 0, "MEAN_MOTION_DDOT": 0}, "tle": {"line1": "1 37238U 10065B   25360.66212332  .00000000  00000+0  00000+0 0  9994", "line2": "2 37238   0.0297  74.8027 0002935 224.8642 100.0752  1.00272011 51519"}}, "geometry": {"type": "Point", "coordinates": [109.25641849941141, 0.031168222611952515]}}, {"type": "Feature", "properties": {"norad_id": 37392, "name": "INTELSAT 28 (IS-28)", "group": "intelsat", "lat": -1.3016988447280036, "lon": 11.620728206342578, "alt_km": 35788.77854072619, "timestamp": "2025-12-26T20:30:45.600979+00:00", "meta": {"OBJECT_NAME": "INTELSAT 28 (IS-28)", "OBJECT_ID": "2011-016A", "EPOCH": "2025-12-26T00:24:38.640960", "MEAN_MOTION": 1.00271568, "ECCENTRICITY": 0.00037974, "INCLINATION": 1.3569, "RA_OF_ASC_NODE": 84.9113, "ARG_OF_PERICENTER": 188.0675, "MEAN_ANOMALY": 156.2464, "EPHEMERIS_TYPE": 0, "CLASSIFICATION_TYPE": "U", "NORAD_CAT_ID": 37392, "ELEMENT_SET_NO": 999, "REV_AT_EPOCH": 5154, "BSTAR": 0, "MEAN_MOTION_DOT": -2.03e-06, "MEAN_MOTION_DDOT": 0}, "tle": {"line1": "1 37392U 11016A   25360.01711390 -.00000203  00000+0  00000+0 0  9995", "line2": "2 37392   1.3569  84.9113 0003797 188.0675 156.2464  1.00271568 51540"}}, "geometry": {"type": "Point", "coordinates": [11.620728206342578, -1.3016988447280036]}}]}